[
  {
    "OBJECT_NAME": "STARLINK-1068",
    "OBJECT_ID": "2019-074BM",
    "EPOCH": "2025-05-17T07:09:34.339104",
    "MEAN_MOTION": 15.0639328,
    "ECCENTRICITY": 0.0001496,
    "INCLINATION": 53.0543,
    "RA_OF_ASC_NODE": 97.1709,
    "ARG_OF_PERICENTER": 100.3376,
    "MEAN_ANOMALY": 259.7782,
    "EPHEMERIS_TYPE": 0,
    "CLASSIFICATION_TYPE": "U",
    "NORAD_CAT_ID": 44772,
    "ELEMENT_SET_NO": 999,
    "REV_AT_EPOCH": 30379,
    "BSTAR": 6.4914e-05,
    "MEAN_MOTION_DOT": 6.85e-06,
    "MEAN_MOTION_DDOT": 0
  },
  {
    "OBJECT_NAME": "STARLINK-1098",
    "OBJECT_ID": "2020-001D",
    "EPOCH": "2025-05-17T14:00:01.999872",
    "MEAN_MOTION": 15.27488372,
    "ECCENTRICITY": 0.0001414,
    "INCLINATION": 53.0528,
    "RA_OF_ASC_NODE": 234.9958,
    "ARG_OF_PERICENTER": 69.4969,
    "MEAN_ANOMALY": 229.52,
    "EPHEMERIS_TYPE": 0,
    "CLASSIFICATION_TYPE": "U",
    "NORAD_CAT_ID": 44917,
    "ELEMENT_SET_NO": 999,
    "REV_AT_EPOCH": 579,
    "BSTAR": 0.041615,
    "MEAN_MOTION_DOT": 0.01238251,
    "MEAN_MOTION_DDOT": 0
  },
  {
    "OBJECT_NAME": "STARLINK-1104",
    "OBJECT_ID": "2020-001J",
    "EPOCH": "2025-05-17T16:06:51.747264",
    "MEAN_MOTION": 15.13337643,
    "ECCENTRICITY": 0.0002218,
    "INCLINATION": 53.0547,
    "RA_OF_ASC_NODE": 235.2518,
    "ARG_OF_PERICENTER": 158.5143,
    "MEAN_ANOMALY": 201.5942,
    "EPHEMERIS_TYPE": 0,
    "CLASSIFICATION_TYPE": "U",
    "NORAD_CAT_ID": 44922,
    "ELEMENT_SET_NO": 999,
    "REV_AT_EPOCH": 29523,
    "BSTAR": 0.022175,
    "MEAN_MOTION_DOT": 0.00424013,
    "MEAN_MOTION_DDOT": 0
  },
  {
    "OBJECT_NAME": "STARLINK-1112",
    "OBJECT_ID": "2020-001M",
    "EPOCH": "2025-05-17T14:00:01.999872",
    "MEAN_MOTION": 15.31580806,
    "ECCENTRICITY": 0.0001004,
    "INCLINATION": 53.057,
    "RA_OF_ASC_NODE": 234.5577,
    "ARG_OF_PERICENTER": 46.9366,
    "MEAN_ANOMALY": 237.1806,
    "EPHEMERIS_TYPE": 0,
    "CLASSIFICATION_TYPE": "U",
    "NORAD_CAT_ID": 44925,
    "ELEMENT_SET_NO": 999,
    "REV_AT_EPOCH": 578,
    "BSTAR": 0.00025318,
    "MEAN_MOTION_DOT": 7.471e-05,
    "MEAN_MOTION_DDOT": 0
  },
  {
    "OBJECT_NAME": "STARLINK-1114",
    "OBJECT_ID": "2020-001P",
    "EPOCH": "2025-05-17T11:16:21.565920",
    "MEAN_MOTION": 15.06400368,
    "ECCENTRICITY": 0.0001338,
    "INCLINATION": 53.0553,
    "RA_OF_ASC_NODE": 236.4004,
    "ARG_OF_PERICENTER": 75.9605,
    "MEAN_ANOMALY": 284.1532,
    "EPHEMERIS_TYPE": 0,
    "CLASSIFICATION_TYPE": "U",
    "NORAD_CAT_ID": 44927,
    "ELEMENT_SET_NO": 999,
    "REV_AT_EPOCH": 29520,
    "BSTAR": 0.00019209,
    "MEAN_MOTION_DOT": 2.581e-05,
    "MEAN_MOTION_DDOT": 0
  },
  {
    "OBJECT_NAME": "STARLINK-1123",
    "OBJECT_ID": "2020-001S",
    "EPOCH": "2025-05-17T13:13:07.123296",
    "MEAN_MOTION": 15.06408124,
    "ECCENTRICITY": 0.0001071,
    "INCLINATION": 53.0533,
    "RA_OF_ASC_NODE": 236.0349,
    "ARG_OF_PERICENTER": 89.4433,
    "MEAN_ANOMALY": 270.6678,
    "EPHEMERIS_TYPE": 0,
    "CLASSIFICATION_TYPE": "U",
    "NORAD_CAT_ID": 44930,
    "ELEMENT_SET_NO": 999,
    "REV_AT_EPOCH": 29521,
    "BSTAR": 0.00031181,
    "MEAN_MOTION_DOT": 4.367e-05,
    "MEAN_MOTION_DDOT": 0
  },
  {
    "OBJECT_NAME": "STARLINK-1130 (DARKSAT)",
    "OBJECT_ID": "2020-001U",
    "EPOCH": "2025-05-17T08:13:37.977888",
    "MEAN_MOTION": 15.83424359,
    "ECCENTRICITY": 0.0006073,
    "INCLINATION": 53.0385,
    "RA_OF_ASC_NODE": 167.1693,
    "ARG_OF_PERICENTER": 13.4399,
    "MEAN_ANOMALY": 346.6783,
    "EPHEMERIS_TYPE": 0,
    "CLASSIFICATION_TYPE": "U",
    "NORAD_CAT_ID": 44932,
    "ELEMENT_SET_NO": 999,
    "REV_AT_EPOCH": 29739,
    "BSTAR": 0.00071353,
    "MEAN_MOTION_DOT": 0.00161077,
    "MEAN_MOTION_DDOT": 0
  },
  {
    "OBJECT_NAME": "STARLINK-1144",
    "OBJECT_ID": "2020-001V",
    "EPOCH": "2025-05-17T14:10:26.942304",
    "MEAN_MOTION": 15.3344401,
    "ECCENTRICITY": 0.0010439,
    "INCLINATION": 53.0519,
    "RA_OF_ASC_NODE": 215.1484,
    "ARG_OF_PERICENTER": 258.1196,
    "MEAN_ANOMALY": 101.8634,
    "EPHEMERIS_TYPE": 0,
    "CLASSIFICATION_TYPE": "U",
    "NORAD_CAT_ID": 44933,
    "ELEMENT_SET_NO": 999,
    "REV_AT_EPOCH": 29680,
    "BSTAR": 0.0025608,
    "MEAN_MOTION_DOT": 0.00084652,
    "MEAN_MOTION_DDOT": 0
  },
  {
    "OBJECT_NAME": "STARLINK-1071",
    "OBJECT_ID": "2020-001W",
    "EPOCH": "2025-05-17T22:00:01.999584",
    "MEAN_MOTION": 15.37322606,
    "ECCENTRICITY": 0.0001195,
    "INCLINATION": 53.0497,
    "RA_OF_ASC_NODE": 212.9126,
    "ARG_OF_PERICENTER": 78.9667,
    "MEAN_ANOMALY": 358.4414,
    "EPHEMERIS_TYPE": 0,
    "CLASSIFICATION_TYPE": "U",
    "NORAD_CAT_ID": 44934,
    "ELEMENT_SET_NO": 999,
    "REV_AT_EPOCH": 29556,
    "BSTAR": 0.030066,
    "MEAN_MOTION_DOT": 0.01213556,
    "MEAN_MOTION_DDOT": 0
  },
  {
    "OBJECT_NAME": "STARLINK-1079",
    "OBJECT_ID": "2020-001Z",
    "EPOCH": "2025-05-17T14:00:01.999872",
    "MEAN_MOTION": 15.70681545,
    "ECCENTRICITY": 0.0008152,
    "INCLINATION": 53.0346,
    "RA_OF_ASC_NODE": 139.8308,
    "ARG_OF_PERICENTER": 13.045,
    "MEAN_ANOMALY": 338.9669,
    "EPHEMERIS_TYPE": 0,
    "CLASSIFICATION_TYPE": "U",
    "NORAD_CAT_ID": 44937,
    "ELEMENT_SET_NO": 999,
    "REV_AT_EPOCH": 601,
    "BSTAR": 0.0016798,
    "MEAN_MOTION_DOT": 0.00217271,
    "MEAN_MOTION_DDOT": 0
  },
  {
    "OBJECT_NAME": "STARLINK-1091",
    "OBJECT_ID": "2020-001AC",
    "EPOCH": "2025-05-17T12:20:25.155456",
    "MEAN_MOTION": 15.1370846,
    "ECCENTRICITY": 0.0001337,
    "INCLINATION": 53.0549,
    "RA_OF_ASC_NODE": 215.9117,
    "ARG_OF_PERICENTER": 82.5921,
    "MEAN_ANOMALY": 277.5223,
    "EPHEMERIS_TYPE": 0,
    "CLASSIFICATION_TYPE": "U",
    "NORAD_CAT_ID": 44940,
    "ELEMENT_SET_NO": 999,
    "REV_AT_EPOCH": 29548,
    "BSTAR": 1.1267e-05,
    "MEAN_MOTION_DOT": -9.7e-07,
    "MEAN_MOTION_DDOT": 0
  },
  {
    "OBJECT_NAME": "STARLINK-1094",
    "OBJECT_ID": "2020-001AD",
    "EPOCH": "2025-05-17T11:56:09.904704",
    "MEAN_MOTION": 15.06416671,
    "ECCENTRICITY": 0.0001385,
    "INCLINATION": 53.0534,
    "RA_OF_ASC_NODE": 216.2739,
    "ARG_OF_PERICENTER": 82.5018,
    "MEAN_ANOMALY": 277.6129,
    "EPHEMERIS_TYPE": 0,
    "CLASSIFICATION_TYPE": "U",
    "NORAD_CAT_ID": 44941,
    "ELEMENT_SET_NO": 999,
    "REV_AT_EPOCH": 29548,
    "BSTAR": 0.00043886,
    "MEAN_MOTION_DOT": 6.264e-05,
    "MEAN_MOTION_DDOT": 0
  },
  {
    "OBJECT_NAME": "STARLINK-1096",
    "OBJECT_ID": "2020-001AE",
    "EPOCH": "2025-05-17T04:42:33.464160",
    "MEAN_MOTION": 15.6141043,
    "ECCENTRICITY": 0.0002263,
    "INCLINATION": 52.9999,
    "RA_OF_ASC_NODE": 54.7961,
    "ARG_OF_PERICENTER": 108.8446,
    "MEAN_ANOMALY": 251.2812,
    "EPHEMERIS_TYPE": 0,
    "CLASSIFICATION_TYPE": "U",
    "NORAD_CAT_ID": 44942,
    "ELEMENT_SET_NO": 999,
    "REV_AT_EPOCH": 29771,
    "BSTAR": 0.00062658,
    "MEAN_MOTION_DOT": 0.00054299,
    "MEAN_MOTION_DDOT": 0
  },
  {
    "OBJECT_NAME": "STARLINK-1109",
    "OBJECT_ID": "2020-001AH",
    "EPOCH": "2025-05-15T14:00:01.999872",
    "MEAN_MOTION": 16.04657523,
    "ECCENTRICITY": 0.0007394,
    "INCLINATION": 53.0321,
    "RA_OF_ASC_NODE": 144.1097,
    "ARG_OF_PERICENTER": 17.4034,
    "MEAN_ANOMALY": 158.193,
    "EPHEMERIS_TYPE": 0,
    "CLASSIFICATION_TYPE": "U",
    "NORAD_CAT_ID": 44945,
    "ELEMENT_SET_NO": 999,
    "REV_AT_EPOCH": 610,
    "BSTAR": 0.00072155,
    "MEAN_MOTION_DOT": 0.00497482,
    "MEAN_MOTION_DDOT": 0.00012644
  }
]