STARLINK-1068           
1 44772U 19074BM  25137.29831411  .00000685  00000+0  64914-4 0  9998
2 44772  53.0543  97.1709 0001496 100.3376 259.7782 15.06393280303798
STARLINK-1098           
1 44917U 20001D   25137.58335648  .01238251  00000+0  41615-1 0  9997
2 44917  53.0528 234.9958 0001414  69.4969 229.5200 15.27488372  5791
STARLINK-1104           
1 44922U 20001J   25137.67143226  .00424013  00000+0  22175-1 0  9994
2 44922  53.0547 235.2518 0002218 158.5143 201.5942 15.13337643295233
STARLINK-1112           
1 44925U 20001M   25137.58335648  .00007471  00000+0  25318-3 0  9997
2 44925  53.0570 234.5577 0001004  46.9366 237.1806 15.31580806  5782
STARLINK-1114           
1 44927U 20001P   25137.46969405  .00002581  00000+0  19209-3 0  9999
2 44927  53.0553 236.4004 0001338  75.9605 284.1532 15.06400368295201
STARLINK-1123           
1 44930U 20001S   25137.55077689  .00004367  00000+0  31181-3 0  9994
2 44930  53.0533 236.0349 0001071  89.4433 270.6678 15.06408124295214
STARLINK-1130 (DARKSAT) 
1 44932U 20001U   25137.34280067  .00161077  00000+0  71353-3 0  9996
2 44932  53.0385 167.1693 0006073  13.4399 346.6783 15.83424359297397
STARLINK-1144           
1 44933U 20001V   25137.59058961  .00084652  00000+0  25608-2 0  9994
2 44933  53.0519 215.1484 0010439 258.1196 101.8634 15.33444010296805
STARLINK-1071           
1 44934U 20001W   25137.91668981  .01213556  00000+0  30066-1 0  9991
2 44934  53.0497 212.9126 0001195  78.9667 358.4414 15.37322606295567
STARLINK-1079           
1 44937U 20001Z   25137.58335648  .00217271  00000+0  16798-2 0  9992
2 44937  53.0346 139.8308 0008152  13.0450 338.9669 15.70681545  6014
STARLINK-1091           
1 44940U 20001AC  25137.51418004 -.00000097  00000+0  11267-4 0  9992
2 44940  53.0549 215.9117 0001337  82.5921 277.5223 15.13708460295487
STARLINK-1094           
1 44941U 20001AD  25137.49733686  .00006264  00000+0  43886-3 0  9998
2 44941  53.0534 216.2739 0001385  82.5018 277.6129 15.06416671295484
STARLINK-1096           
1 44942U 20001AE  25137.19622065  .00054299  00000+0  62658-3 0  9993
2 44942  52.9999  54.7961 0002263 108.8446 251.2812 15.61410430297716
STARLINK-1109           
1 44945U 20001AH  25135.58335648  .00497482  12644-3  72155-3 0  9994
2 44945  53.0321 144.1097 0007394  17.4034 158.1930 16.04657523  6103
